{
  "type": "FeatureCollection",
  "features": [
    {
      "type": "Feature",
      "properties": {
        "norad_id": 36828,
        "name": "BEIDOU-2 IGSO-1 (C06)",
        "group": "beidou",
        "lat": -10.252098769829704,
        "lon": -7.917387238766082,
        "alt_km": 35588.57700808151,
        "timestamp": "2025-12-17T10:52:54.618198+00:00",
        "meta_object_name": "BEIDOU-2 IGSO-1 (C06)",
        "meta_object_id": "2010-036A",
        "meta_epoch": "2025-12-14T21:38:21.623424",
        "meta_mean_motion": 1.00275796,
        "meta_eccentricity": 0.00512569,
        "meta_inclination": 54.2866,
        "meta_ra_of_asc_node": 164.6279,
        "meta_arg_of_pericenter": 215.8888,
        "meta_mean_anomaly": 135.7931,
        "meta_ephemeris_type": 0,
        "meta_classification_type": "U",
        "meta_norad_cat_id": 36828,
        "meta_element_set_no": 999,
        "meta_rev_at_epoch": 5624,
        "meta_bstar": 0,
        "meta_mean_motion_dot": -2.4e-07,
        "meta_mean_motion_ddot": 0,
        "tle_line1": "1 36828U 10036A   25348.90163916 -.00000024  00000+0  00000+0 0  9999",
        "tle_line2": "2 36828  54.2866 164.6279 0051256 215.8888 135.7931  1.00275796 56247"
      },
      "geometry": {
        "type": "Point",
        "coordinates": [
          -7.917387238766082,
          -10.252098769829704
        ]
      }
    },
    {
      "type": "Feature",
      "properties": {
        "norad_id": 37210,
        "name": "BEIDOU-2 G4 (C04)",
        "group": "beidou",
        "lat": -1.082341698039908,
        "lon": 49.72123778583431,
        "alt_km": 35823.81977601197,
        "timestamp": "2025-12-17T10:52:54.618220+00:00",
        "meta_object_name": "BEIDOU-2 G4 (C04)",
        "meta_object_id": "2010-057A",
        "meta_epoch": "2025-12-16T19:15:12.189888",
        "meta_mean_motion": 1.00271976,
        "meta_eccentricity": 0.00105232,
        "meta_inclination": 3.1945,
        "meta_ra_of_asc_node": 69.9245,
        "meta_arg_of_pericenter": 192.1833,
        "meta_mean_anomaly": 272.4593,
        "meta_ephemeris_type": 0,
        "meta_classification_type": "U",
        "meta_norad_cat_id": 37210,
        "meta_element_set_no": 999,
        "meta_rev_at_epoch": 5546,
        "meta_bstar": 0,
        "meta_mean_motion_dot": -9e-07,
        "meta_mean_motion_ddot": 0,
        "tle_line1": "1 37210U 10057A   25350.80222442 -.00000090  00000+0  00000+0 0  9993",
        "tle_line2": "2 37210   3.1945  69.9245 0010523 192.1833 272.4593  1.00271976 55465"
      },
      "geometry": {
        "type": "Point",
        "coordinates": [
          49.72123778583431,
          -1.082341698039908
        ]
      }
    },
    {
      "type": "Feature",
      "properties": {
        "norad_id": 37256,
        "name": "BEIDOU-2 IGSO-2 (C07)",
        "group": "beidou",
        "lat": 47.432751371253694,
        "lon": -6.514524964089395,
        "alt_km": 35915.761701651565,
        "timestamp": "2025-12-17T10:52:54.618235+00:00",
        "meta_object_name": "BEIDOU-2 IGSO-2 (C07)",
        "meta_object_id": "2010-068A",
        "meta_epoch": "2025-12-16T17:17:38.444640",
        "meta_mean_motion": 1.00285618,
        "meta_eccentricity": 0.0048244,
        "meta_inclination": 47.8781,
        "meta_ra_of_asc_node": 274.0996,
        "meta_arg_of_pericenter": 216.2935,
        "meta_mean_anomaly": 322.4053,
        "meta_ephemeris_type": 0,
        "meta_classification_type": "U",
        "meta_norad_cat_id": 37256,
        "meta_element_set_no": 999,
        "meta_rev_at_epoch": 5496,
        "meta_bstar": 0,
        "meta_mean_motion_dot": -2.14e-06,
        "meta_mean_motion_ddot": 0,
        "tle_line1": "1 37256U 10068A   25350.72058385 -.00000214  00000+0  00000+0 0  9997",
        "tle_line2": "2 37256  47.8781 274.0996 0048244 216.2935 322.4053  1.00285618 54961"
      },
      "geometry": {
        "type": "Point",
        "coordinates": [
          -6.514524964089395,
          47.432751371253694
        ]
      }
    },
    {
      "type": "Feature",
      "properties": {
        "norad_id": 37384,
        "name": "BEIDOU-2 IGSO-3 (C08)",
        "group": "beidou",
        "lat": -38.40600320864018,
        "lon": 17.165965140990274,
        "alt_km": 35881.72929046872,
        "timestamp": "2025-12-17T10:52:54.618248+00:00",
        "meta_object_name": "BEIDOU-2 IGSO-3 (C08)",
        "meta_object_id": "2011-013A",
        "meta_epoch": "2025-12-16T19:14:25.722240",
        "meta_mean_motion": 1.00270021,
        "meta_eccentricity": 0.00353731,
        "meta_inclination": 62.1488,
        "meta_ra_of_asc_node": 41.877,
        "meta_arg_of_pericenter": 187.9496,
        "meta_mean_anomaly": 251.9313,
        "meta_ephemeris_type": 0,
        "meta_classification_type": "U",
        "meta_norad_cat_id": 37384,
        "meta_element_set_no": 999,
        "meta_rev_at_epoch": 5383,
        "meta_bstar": 0,
        "meta_mean_motion_dot": -1.84e-06,
        "meta_mean_motion_ddot": 0,
        "tle_line1": "1 37384U 11013A   25350.80168660 -.00000184  00000+0  00000+0 0  9993",
        "tle_line2": "2 37384  62.1488  41.8770 0035373 187.9496 251.9313  1.00270021 53834"
      },
      "geometry": {
        "type": "Point",
        "coordinates": [
          17.165965140990274,
          -38.40600320864018
        ]
      }
    },
    {
      "type": "Feature",
      "properties": {
        "norad_id": 37763,
        "name": "BEIDOU-2 IGSO-4 (C09)",
        "group": "beidou",
        "lat": 3.729021397362518,
        "lon": -15.366819205558317,
        "alt_km": 35415.17794214985,
        "timestamp": "2025-12-17T10:52:54.618261+00:00",
        "meta_object_name": "BEIDOU-2 IGSO-4 (C09)",
        "meta_object_id": "2011-038A",
        "meta_epoch": "2025-12-15T07:50:06.120672",
        "meta_mean_motion": 1.00281785,
        "meta_eccentricity": 0.01493054,
        "meta_inclination": 54.5835,
        "meta_ra_of_asc_node": 167.3229,
        "meta_arg_of_pericenter": 230.222,
        "meta_mean_anomaly": 258.6911,
        "meta_ephemeris_type": 0,
        "meta_classification_type": "U",
        "meta_norad_cat_id": 37763,
        "meta_element_set_no": 999,
        "meta_rev_at_epoch": 5280,
        "meta_bstar": 0,
        "meta_mean_motion_dot": 6.8e-07,
        "meta_mean_motion_ddot": 0,
        "tle_line1": "1 37763U 11038A   25349.32645973  .00000068  00000+0  00000+0 0  9993",
        "tle_line2": "2 37763  54.5835 167.3229 0149305 230.2220 258.6911  1.00281785 52800"
      },
      "geometry": {
        "type": "Point",
        "coordinates": [
          -15.366819205558317,
          3.729021397362518
        ]
      }
    },
    {
      "type": "Feature",
      "properties": {
        "norad_id": 37948,
        "name": "BEIDOU-2 IGSO-5 (C10)",
        "group": "beidou",
        "lat": 43.77007863523523,
        "lon": -26.813179665361716,
        "alt_km": 36190.26556996295,
        "timestamp": "2025-12-17T10:52:54.618274+00:00",
        "meta_object_name": "BEIDOU-2 IGSO-5 (C10)",
        "meta_object_id": "2011-073A",
        "meta_epoch": "2025-12-16T20:45:03.347712",
        "meta_mean_motion": 1.00290524,
        "meta_eccentricity": 0.01100285,
        "meta_inclination": 48.0123,
        "meta_ra_of_asc_node": 273.8075,
        "meta_arg_of_pericenter": 222.3616,
        "meta_mean_anomaly": 354.0663,
        "meta_ephemeris_type": 0,
        "meta_classification_type": "U",
        "meta_norad_cat_id": 37948,
        "meta_element_set_no": 999,
        "meta_rev_at_epoch": 5130,
        "meta_bstar": 0,
        "meta_mean_motion_dot": -1.89e-06,
        "meta_mean_motion_ddot": 0,
        "tle_line1": "1 37948U 11073A   25350.86462208 -.00000189  00000+0  00000+0 0  9991",
        "tle_line2": "2 37948  48.0123 273.8075 0110028 222.3616 354.0663  1.00290524 51306"
      },
      "geometry": {
        "type": "Point",
        "coordinates": [
          -26.813179665361716,
          43.77007863523523
        ]
      }
    },
    {
      "type": "Feature",
      "properties": {
        "norad_id": 38091,
        "name": "BEIDOU-2 G5 (C05)",
        "group": "beidou",
        "lat": -2.6529662620964207,
        "lon": -51.661082061936945,
        "alt_km": 35732.95576891126,
        "timestamp": "2025-12-17T10:52:54.618286+00:00",
        "meta_object_name": "BEIDOU-2 G5 (C05)",
        "meta_object_id": "2012-008A",
        "meta_epoch": "2025-12-16T15:20:55.893984",
        "meta_mean_motion": 1.00267602,
        "meta_eccentricity": 0.00130267,
        "meta_inclination": 3.1186,
        "meta_ra_of_asc_node": 70.7002,
        "meta_arg_of_pericenter": 231.2097,
        "meta_mean_anomaly": 72.6715,
        "meta_ephemeris_type": 0,
        "meta_classification_type": "U",
        "meta_norad_cat_id": 38091,
        "meta_element_set_no": 999,
        "meta_rev_at_epoch": 5053,
        "meta_bstar": 0,
        "meta_mean_motion_dot": 7.8e-07,
        "meta_mean_motion_ddot": 0,
        "tle_line1": "1 38091U 12008A   25350.63953581  .00000078  00000+0  00000+0 0  9990",
        "tle_line2": "2 38091   3.1186  70.7002 0013026 231.2097  72.6715  1.00267602 50539"
      },
      "geometry": {
        "type": "Point",
        "coordinates": [
          -51.661082061936945,
          -2.6529662620964207
        ]
      }
    }
  ]
}